{"type": "FeatureCollection", "features": [{"type": "Feature", "properties": {"name": "Public Alley 822", "number": 822, "alley_type": "public", "osm_id": 8637572}, "geometry": {"type": "LineString", "coordinates": [[-71.0862563, 42.3415957], [-71.086181, 42.3415466], [-71.0858183, 42.3413103], [-71.0857913, 42.3412923], [-71.085518, 42.3411094], [-71.0854757, 42.3410811], [-71.0854532, 42.3410669]]}}, {"type": "Feature", "properties": {"name": "Public Alley 542", "number": 542, "alley_type": "public", "osm_id": 8637654}, "geometry": {"type": "LineString", "coordinates": [[-71.0782451, 42.3440008], [-71.077905, 42.3442613], [-71.0776134, 42.3444998], [-71.0775557, 42.34453]]}}, {"type": "Feature", "properties": {"name": "Public Alley 419", "number": 419, "alley_type": "public", "osm_id": 8637791}, "geometry": {"type": "LineString", "coordinates": [[-71.076758, 42.3538355], [-71.0768419, 42.3538119], [-71.0787991, 42.353284], [-71.0788695, 42.353263], [-71.0789227, 42.3532487]]}}, {"type": "Feature", "properties": {"name": "Private Alley 911", "number": 911, "alley_type": "private", "osm_id": 8638253}, "geometry": {"type": "LineString", "coordinates": [[-71.1004648, 42.349902], [-71.1003742, 42.3498923], [-71.1003068, 42.3498851], [-71.0980484, 42.3496449], [-71.0977844, 42.3496168], [-71.0976632, 42.3496041], [-71.0975075, 42.3495696], [-71.09741, 42.3495984]]}}, {"type": "Feature", "properties": {"name": "Public Alley 539", "number": 539, "alley_type": "public", "osm_id": 8638280}, "geometry": {"type": "LineString", "coordinates": [[-71.0789681, 42.3434867], [-71.0789164, 42.3435302], [-71.078655, 42.343746], [-71.078293, 42.3440334]]}}, {"type": "Feature", "properties": {"name": "Public Alley 437", "number": 437, "alley_type": "public", "osm_id": 8638355}, "geometry": {"type": "LineString", "coordinates": [[-71.071287, 42.3530781], [-71.0714, 42.3530482], [-71.0714776, 42.3530267]]}}, {"type": "Feature", "properties": {"name": "Private Alley 936", "number": 936, "alley_type": "private", "osm_id": 8638405}, "geometry": {"type": "LineString", "coordinates": [[-71.0997992, 42.3435335], [-71.0997201, 42.3435544], [-71.0976857, 42.3440917], [-71.0976075, 42.3441137]]}}, {"type": "Feature", "properties": {"name": "Private Alley 926", "number": 926, "alley_type": "private", "osm_id": 8638410}, "geometry": {"type": "LineString", "coordinates": [[-71.0998253, 42.3414307], [-71.1003284, 42.3419026], [-71.1003773, 42.3419485]]}}, {"type": "Feature", "properties": {"name": "Private Alley 932", "number": 932, "alley_type": "private", "osm_id": 8638416}, "geometry": {"type": "LineString", "coordinates": [[-71.1015676, 42.3430294], [-71.0998761, 42.3435064], [-71.0997992, 42.3435335]]}}, {"type": "Feature", "properties": {"name": "Public Alley 710", "number": 710, "alley_type": "public", "osm_id": 8639468}, "geometry": {"type": "LineString", "coordinates": [[-71.0723636, 42.3378164], [-71.0722971, 42.3378598], [-71.07186, 42.338145], [-71.0713052, 42.3385322], [-71.0712561, 42.3385665]]}}, {"type": "Feature", "properties": {"name": "Public Alley 715", "number": 715, "alley_type": "public", "osm_id": 8640189}, "geometry": {"type": "LineString", "coordinates": [[-71.0765907, 42.3362458], [-71.0765264, 42.3362932], [-71.076285, 42.3364564], [-71.0761861, 42.3363863]]}}, {"type": "Feature", "properties": {"name": "Public Alley 820", "number": 820, "alley_type": "public", "osm_id": 8640639}, "geometry": {"type": "LineString", "coordinates": [[-71.0851887, 42.3424158], [-71.0851508, 42.3423898], [-71.084793, 42.342144], [-71.0845185, 42.3419457], [-71.0844384, 42.3419034]]}}, {"type": "Feature", "properties": {"name": "Public Alley 821", "number": 821, "alley_type": "public", "osm_id": 8640646}, "geometry": {"type": "LineString", "coordinates": [[-71.0858183, 42.3413103], [-71.0857346, 42.3413827], [-71.0851714, 42.3418381], [-71.0850587, 42.3419292], [-71.0849011, 42.3420566], [-71.084793, 42.342144]]}}, {"type": "Feature", "properties": {"name": "Public Alley 433", "number": 433, "alley_type": "public", "osm_id": 8640809}, "geometry": {"type": "LineString", "coordinates": [[-71.0800853, 42.3507042], [-71.0801713, 42.3506849], [-71.0822927, 42.3501145], [-71.0823814, 42.3500862]]}}, {"type": "Feature", "properties": {"name": "Public Alley 543", "number": 543, "alley_type": "public", "osm_id": 8640864}, "geometry": {"type": "LineString", "coordinates": [[-71.0775557, 42.34453], [-71.0774964, 42.3445744], [-71.0774016, 42.3446485], [-71.0772011, 42.3448017], [-71.076928, 42.3450428], [-71.0768817, 42.345082]]}}, {"type": "Feature", "properties": {"name": "Private Alley 920", "number": 920, "alley_type": "private", "osm_id": 8640933}, "geometry": {"type": "LineString", "coordinates": [[-71.1051995, 42.347179], [-71.1036406, 42.3475956], [-71.1035687, 42.3476148]]}}, {"type": "Feature", "properties": {"name": "Public Alley 807", "number": 807, "alley_type": "public", "osm_id": 8641438}, "geometry": {"type": "LineString", "coordinates": [[-71.0914254, 42.3412329], [-71.0913771, 42.3413031], [-71.0911394, 42.341696], [-71.0911218, 42.341725], [-71.0908273, 42.3422109], [-71.0907082, 42.3426294], [-71.0906527, 42.3428246], [-71.0905979, 42.3430171], [-71.0905287, 42.3432602], [-71.0902227, 42.343209], [-71.0901191, 42.3431916]]}}, {"type": "Feature", "properties": {"name": "Private Alley 920", "number": 920, "alley_type": "private", "osm_id": 8641570}, "geometry": {"type": "LineString", "coordinates": [[-71.1070168, 42.3466692], [-71.1069718, 42.3466824], [-71.1055068, 42.3471116]]}}, {"type": "Feature", "properties": {"name": "Public Alley 440", "number": 440, "alley_type": "public", "osm_id": 8642170}, "geometry": {"type": "LineString", "coordinates": [[-71.0776697, 42.3504745], [-71.0775526, 42.3505044]]}}, {"type": "Feature", "properties": {"name": "Private Alley 935", "number": 935, "alley_type": "private", "osm_id": 8643788}, "geometry": {"type": "LineString", "coordinates": [[-71.0971917, 42.343279], [-71.0971262, 42.3432969], [-71.0955585, 42.3437251]]}}, {"type": "Feature", "properties": {"name": "Public Alley 429", "number": 429, "alley_type": "public", "osm_id": 8644320}, "geometry": {"type": "LineString", "coordinates": [[-71.0864307, 42.3503482], [-71.0865173, 42.350324], [-71.0887865, 42.3497101], [-71.0889013, 42.3496791]]}}, {"type": "Feature", "properties": {"name": "Public Alley 811", "number": 811, "alley_type": "public", "osm_id": 8644493}, "geometry": {"type": "LineString", "coordinates": [[-71.08965, 42.3431587], [-71.0896602, 42.3431203], [-71.08972, 42.3428957], [-71.0897922, 42.3426304], [-71.089806, 42.3425684]]}}, {"type": "Feature", "properties": {"name": "Public Alley 819", "number": 819, "alley_type": "public", "osm_id": 8644738}, "geometry": {"type": "LineString", "coordinates": [[-71.08965, 42.3431587], [-71.0896364, 42.3432109], [-71.0895669, 42.3434773], [-71.0894706, 42.343801], [-71.0894589, 42.3438347], [-71.0894393, 42.3438914]]}}, {"type": "Feature", "properties": {"name": "Private Alley 914", "number": 914, "alley_type": "private", "osm_id": 8644866}, "geometry": {"type": "LineString", "coordinates": [[-71.0967756, 42.3424274], [-71.0967038, 42.342447], [-71.0963065, 42.3425556], [-71.0963407, 42.3426393], [-71.095663, 42.3428251], [-71.0955054, 42.3429407], [-71.0954495, 42.3430369], [-71.0954181, 42.3431327], [-71.095407, 42.343227], [-71.0954103, 42.3432346], [-71.0954315, 42.3432828]]}}, {"type": "Feature", "properties": {"name": "Private Alley 925", "number": 925, "alley_type": "private", "osm_id": 8644933}, "geometry": {"type": "LineString", "coordinates": [[-71.098761, 42.341418], [-71.0986825, 42.3414465], [-71.098552, 42.341494], [-71.098513, 42.341559], [-71.09837, 42.341731], [-71.098325, 42.3417819], [-71.098262, 42.341853], [-71.098159, 42.341931], [-71.097883, 42.342076], [-71.097654, 42.342176], [-71.096847, 42.342407], [-71.0967756, 42.3424274]]}}, {"type": "Feature", "properties": {"name": "Public Alley 818", "number": 818, "alley_type": "public", "osm_id": 8645070}, "geometry": {"type": "LineString", "coordinates": [[-71.0863127, 42.3428651], [-71.0863734, 42.342906], [-71.0864794, 42.3429772], [-71.0865239, 42.3429996], [-71.0865635, 42.3430072], [-71.0895669, 42.3434773]]}}, {"type": "Feature", "properties": {"name": "Public Alley 717", "number": 717, "alley_type": "public", "osm_id": 8645703}, "geometry": {"type": "LineString", "coordinates": [[-71.064784, 42.3431532], [-71.0646898, 42.3431291], [-71.0646632, 42.3431228], [-71.0640105, 42.3429683]]}}, {"type": "Feature", "properties": {"name": "Private Alley 534", "number": 534, "alley_type": "private", "osm_id": 8645793}, "geometry": {"type": "LineString", "coordinates": [[-71.0821771, 42.3423208], [-71.082145, 42.3422981], [-71.0811426, 42.3415947]]}}, {"type": "Feature", "properties": {"name": "Private Alley 933", "number": 933, "alley_type": "private", "osm_id": 8646167}, "geometry": {"type": "LineString", "coordinates": [[-71.1007654, 42.3422415], [-71.1005883, 42.3423482], [-71.1005408, 42.3423727], [-71.1004937, 42.342391], [-71.0998841, 42.342551], [-71.0997257, 42.3425939], [-71.099464, 42.3426638], [-71.0993798, 42.3426863]]}}, {"type": "Feature", "properties": {"name": "Public Alley 405", "number": 405, "alley_type": "public", "osm_id": 8646172}, "geometry": {"type": "LineString", "coordinates": [[-71.0837199, 42.3424889], [-71.0837872, 42.3425356], [-71.0840697, 42.3427314], [-71.0844439, 42.3429774], [-71.0844823, 42.3430021]]}}, {"type": "Feature", "properties": {"name": "Public Alley 1001", "number": 1001, "alley_type": "public", "osm_id": 8646205}, "geometry": {"type": "LineString", "coordinates": [[-71.0973029, 42.3375725], [-71.0970885, 42.3379164], [-71.0969152, 42.3381942], [-71.0968806, 42.3382497]]}}, {"type": "Feature", "properties": {"name": "Public Alley 719", "number": 719, "alley_type": "public", "osm_id": 8646350}, "geometry": {"type": "LineString", "coordinates": [[-71.0742394, 42.3356738], [-71.0743023, 42.3357235], [-71.075616, 42.3367703]]}}, {"type": "Feature", "properties": {"name": "Public Alley 420", "number": 420, "alley_type": "public", "osm_id": 8646508}, "geometry": {"type": "LineString", "coordinates": [[-71.0746015, 42.3544159], [-71.0746959, 42.3543905], [-71.0766716, 42.3538591], [-71.076758, 42.3538355]]}}, {"type": "Feature", "properties": {"name": "Public Alley 432", "number": 432, "alley_type": "public", "osm_id": 8646596}, "geometry": {"type": "LineString", "coordinates": [[-71.0823814, 42.3500862], [-71.0824711, 42.3500588], [-71.0842368, 42.349584], [-71.0843227, 42.3495609]]}}, {"type": "Feature", "properties": {"name": "Public Alley 439", "number": 439, "alley_type": "public", "osm_id": 8646715}, "geometry": {"type": "LineString", "coordinates": [[-71.0754053, 42.3510829], [-71.0754865, 42.3510629], [-71.0774419, 42.3505313], [-71.0775059, 42.3505158], [-71.0775526, 42.3505044]]}}, {"type": "Feature", "properties": {"name": "Public Alley 423", "number": 423, "alley_type": "public", "osm_id": 8646749}, "geometry": {"type": "LineString", "coordinates": [[-71.0742245, 42.3536434], [-71.0743182, 42.3536194], [-71.0762715, 42.3530899], [-71.0762953, 42.3530835], [-71.0763802, 42.353061]]}}, {"type": "Feature", "properties": {"name": "Private Alley 930", "number": 930, "alley_type": "private", "osm_id": 8647030}, "geometry": {"type": "LineString", "coordinates": [[-71.1004533, 42.3419276], [-71.1004993, 42.3419739], [-71.1007654, 42.3422415], [-71.1011508, 42.3426292], [-71.1011958, 42.3426745]]}}, {"type": "Feature", "properties": {"name": "Private Alley 456", "number": 456, "alley_type": "private", "osm_id": 8647046}, "geometry": {"type": "LineString", "coordinates": [[-71.0819057, 42.3435724], [-71.0818496, 42.3436166], [-71.0815853, 42.3438299]]}}, {"type": "Feature", "properties": {"name": "Private Alley 454", "number": 454, "alley_type": "private", "osm_id": 8647093}, "geometry": {"type": "LineString", "coordinates": [[-71.080946, 42.3443645], [-71.0804747, 42.3440482]]}}, {"type": "Feature", "properties": {"name": "Private Alley 456", "number": 456, "alley_type": "private", "osm_id": 8647134}, "geometry": {"type": "LineString", "coordinates": [[-71.0815853, 42.3438299], [-71.081315, 42.3440532], [-71.0812657, 42.3440968]]}}, {"type": "Feature", "properties": {"name": "Private Alley 457", "number": 457, "alley_type": "private", "osm_id": 8647139}, "geometry": {"type": "LineString", "coordinates": [[-71.0815853, 42.3438299], [-71.0810814, 42.3434892]]}}, {"type": "Feature", "properties": {"name": "Private Alley 449", "number": 449, "alley_type": "private", "osm_id": 8647148}, "geometry": {"type": "LineString", "coordinates": [[-71.0823682, 42.342506], [-71.0827899, 42.3427769]]}}, {"type": "Feature", "properties": {"name": "Public Alley 426", "number": 426, "alley_type": "public", "osm_id": 8647193}, "geometry": {"type": "LineString", "coordinates": [[-71.080673, 42.3518993], [-71.0807492, 42.3518787], [-71.0828827, 42.3513029], [-71.0829678, 42.3512799]]}}, {"type": "Feature", "properties": {"name": "Public Alley 502", "number": 502, "alley_type": "public", "osm_id": 8647211}, "geometry": {"type": "LineString", "coordinates": [[-71.0775921, 42.341218], [-71.077673, 42.3411791], [-71.0779863, 42.3410169], [-71.0790212, 42.3421178]]}}, {"type": "Feature", "properties": {"name": "Public Alley 718", "number": 718, "alley_type": "public", "osm_id": 8647235}, "geometry": {"type": "LineString", "coordinates": [[-71.075877, 42.336591], [-71.075796, 42.3366466], [-71.075616, 42.3367703]]}}, {"type": "Feature", "properties": {"name": "Public Alley 503", "number": 503, "alley_type": "public", "osm_id": 8647343}, "geometry": {"type": "LineString", "coordinates": [[-71.0790212, 42.3421178], [-71.0787832, 42.3423066], [-71.0787103, 42.3423653]]}}, {"type": "Feature", "properties": {"name": "Public Alley 415", "number": 415, "alley_type": "public", "osm_id": 8647472}, "geometry": {"type": "LineString", "coordinates": [[-71.0852991, 42.3515298], [-71.0853851, 42.3515063], [-71.0867287, 42.3511442], [-71.0868079, 42.3511219]]}}, {"type": "Feature", "properties": {"name": "Private Alley 540", "number": 540, "alley_type": "private", "osm_id": 8647563}, "geometry": {"type": "LineString", "coordinates": [[-71.0794968, 42.3443115], [-71.079359, 42.3442396], [-71.0789851, 42.3439807], [-71.0787475, 42.3438117], [-71.078655, 42.343746]]}}, {"type": "Feature", "properties": {"name": "Private Alley 544", "number": 544, "alley_type": "private", "osm_id": 8647579}, "geometry": {"type": "LineString", "coordinates": [[-71.078206, 42.3454682], [-71.0772011, 42.3448017]]}}, {"type": "Feature", "properties": {"name": "Private Alley 541", "number": 541, "alley_type": "private", "osm_id": 8647594}, "geometry": {"type": "LineString", "coordinates": [[-71.077905, 42.3442613], [-71.0788656, 42.3449258]]}}, {"type": "Feature", "properties": {"name": "Public Alley 418", "number": 418, "alley_type": "public", "osm_id": 8647695}, "geometry": {"type": "LineString", "coordinates": [[-71.0789227, 42.3532487], [-71.0790349, 42.3532176], [-71.0809718, 42.3526961], [-71.0810632, 42.352671]]}}, {"type": "Feature", "properties": {"name": "Private Alley 911", "number": 911, "alley_type": "private", "osm_id": 8647763}, "geometry": {"type": "LineString", "coordinates": [[-71.1035202, 42.3502728], [-71.1034667, 42.3502675], [-71.1034179, 42.3502615], [-71.1026924, 42.3501729], [-71.1023221, 42.3501277], [-71.1013471, 42.3500086], [-71.1005551, 42.3499119], [-71.1004648, 42.349902]]}}, {"type": "Feature", "properties": {"name": "Public Alley 901", "number": 901, "alley_type": "public", "osm_id": 8647905}, "geometry": {"type": "LineString", "coordinates": [[-71.0897, 42.3447327], [-71.0897827, 42.3447458], [-71.0898846, 42.3447619], [-71.0901574, 42.3447946], [-71.0899647, 42.3454679], [-71.0898093, 42.3459779], [-71.0897603, 42.3461073], [-71.0896602, 42.346401], [-71.0895504, 42.3463952], [-71.0893275, 42.3463654], [-71.0892548, 42.3463536]]}}, {"type": "Feature", "properties": {"name": "Public Alley 438", "number": 438, "alley_type": "public", "osm_id": 8647989}, "geometry": {"type": "LineString", "coordinates": [[-71.07091, 42.3523049], [-71.0710249, 42.3522708], [-71.0714041, 42.3521671], [-71.0731682, 42.3516845], [-71.073255, 42.3516602]]}}, {"type": "Feature", "properties": {"name": "Public Alley 802", "number": 802, "alley_type": "public", "osm_id": 8648009}, "geometry": {"type": "LineString", "coordinates": [[-71.0815384, 42.3381117], [-71.0814759, 42.3381484], [-71.0812424, 42.3382852], [-71.08113, 42.338351], [-71.0808807, 42.3385167]]}}, {"type": "Feature", "properties": {"name": "Public Alley 909", "number": 909, "alley_type": "public", "osm_id": 8648183}, "geometry": {"type": "LineString", "coordinates": [[-71.0892214, 42.3464726], [-71.0891379, 42.3464946], [-71.0890005, 42.3465291], [-71.0888283, 42.3465624], [-71.0886617, 42.3466082], [-71.0885433, 42.3466407], [-71.0880714, 42.3467732]]}}, {"type": "Feature", "properties": {"name": "Public Alley 908", "number": 908, "alley_type": "public", "osm_id": 8648352}, "geometry": {"type": "LineString", "coordinates": [[-71.0910118, 42.3497501], [-71.0910168, 42.3498144], [-71.0910242, 42.3500303], [-71.0910227, 42.350038], [-71.0910196, 42.3500446], [-71.0910148, 42.3500505], [-71.0910085, 42.3500557], [-71.0910026, 42.350059], [-71.0909944, 42.3500625], [-71.090985, 42.3500649], [-71.0909748, 42.3500667], [-71.0904721, 42.3501473], [-71.0902334, 42.3501953], [-71.089412, 42.3504123], [-71.0893829, 42.3504205], [-71.0892801, 42.3504493]]}}, {"type": "Feature", "properties": {"name": "Public Alley 102", "number": 102, "alley_type": "public", "osm_id": 8648532}, "geometry": {"type": "LineString", "coordinates": [[-71.0569178, 42.3616436], [-71.056882, 42.3616565], [-71.0567848, 42.3616915], [-71.056691, 42.3616979], [-71.056629, 42.3616792], [-71.0565832, 42.3616428], [-71.0564914, 42.3615486], [-71.0564754, 42.3615152], [-71.0564865, 42.3614819], [-71.0566078, 42.361402]]}}, {"type": "Feature", "properties": {"name": "Public Alley 424", "number": 424, "alley_type": "public", "osm_id": 8648641}, "geometry": {"type": "LineString", "coordinates": [[-71.0763802, 42.353061], [-71.0764603, 42.35304], [-71.0766831, 42.3529785], [-71.0783921, 42.3525163], [-71.0784136, 42.3525105], [-71.0784995, 42.3524867], [-71.0785452, 42.352474]]}}, {"type": "Feature", "properties": {"name": "Public Alley 431", "number": 431, "alley_type": "public", "osm_id": 8648738}, "geometry": {"type": "LineString", "coordinates": [[-71.0843227, 42.3495609], [-71.0844094, 42.3495376], [-71.0857516, 42.3491747], [-71.0858032, 42.3491594], [-71.0858482, 42.349146]]}}, {"type": "Feature", "properties": {"name": "Public Alley 417", "number": 417, "alley_type": "public", "osm_id": 8648817}, "geometry": {"type": "LineString", "coordinates": [[-71.0810632, 42.352671], [-71.0811337, 42.352652], [-71.0832596, 42.3520784], [-71.0833472, 42.3520548]]}}, {"type": "Feature", "properties": {"name": "Private Alley 924", "number": 924, "alley_type": "private", "osm_id": 8649121}, "geometry": {"type": "LineString", "coordinates": [[-71.1035424, 42.3475666], [-71.1034743, 42.3475825], [-71.1028515, 42.3477278], [-71.1028237, 42.3477468], [-71.102795, 42.3477839], [-71.1027713, 42.3478552]]}}, {"type": "Feature", "properties": {"name": "Public Alley 421", "number": 421, "alley_type": "public", "osm_id": 8649423}, "geometry": {"type": "LineString", "coordinates": [[-71.0722516, 42.3550447], [-71.0723692, 42.3550173], [-71.0745122, 42.3544399], [-71.0746015, 42.3544159]]}}, {"type": "Feature", "properties": {"name": "Public Alley 425", "number": 425, "alley_type": "public", "osm_id": 8649603}, "geometry": {"type": "LineString", "coordinates": [[-71.0785452, 42.352474], [-71.0786114, 42.3524557], [-71.0786919, 42.3524317], [-71.0790039, 42.3523482], [-71.0805869, 42.3519246], [-71.080673, 42.3518993]]}}, {"type": "Feature", "properties": {"name": "Public Alley 416", "number": 416, "alley_type": "public", "osm_id": 8649651}, "geometry": {"type": "LineString", "coordinates": [[-71.0833472, 42.3520548], [-71.0834287, 42.3520329], [-71.0852117, 42.3515533], [-71.0852991, 42.3515298]]}}, {"type": "Feature", "properties": {"name": "Public Alley 442", "number": 442, "alley_type": "public", "osm_id": 8650040}, "geometry": {"type": "LineString", "coordinates": [[-71.0819912, 42.3493092], [-71.0820806, 42.3492857], [-71.083862, 42.3488045], [-71.0839519, 42.3487806]]}}, {"type": "Feature", "properties": {"name": "Public Alley 902", "number": 902, "alley_type": "public", "osm_id": 8650225}, "geometry": {"type": "LineString", "coordinates": [[-71.0963297, 42.3490258], [-71.0963501, 42.3490714], [-71.0963666, 42.3491084], [-71.0965349, 42.3494528], [-71.0954823, 42.3496956], [-71.0953294, 42.349367], [-71.0952914, 42.3492852]]}}, {"type": "Feature", "properties": {"name": "Public Alley 414", "number": 414, "alley_type": "public", "osm_id": 8650644}, "geometry": {"type": "LineString", "coordinates": [[-71.0868079, 42.3511219], [-71.0868906, 42.3510994], [-71.0891636, 42.350481], [-71.0891933, 42.3504729], [-71.0892801, 42.3504493]]}}, {"type": "Feature", "properties": {"name": "Public Alley 428", "number": 428, "alley_type": "public", "osm_id": 8650680}, "geometry": {"type": "LineString", "coordinates": [[-71.0849174, 42.3507575], [-71.0850013, 42.3507346], [-71.0863426, 42.3503725], [-71.0864307, 42.3503482]]}}, {"type": "Feature", "properties": {"name": "Public Alley 701", "number": 701, "alley_type": "public", "osm_id": 8650700}, "geometry": {"type": "LineString", "coordinates": [[-71.0710785, 42.3418667], [-71.0711518, 42.3419304], [-71.0718283, 42.3425026], [-71.072713, 42.3432509], [-71.072817, 42.343341]]}}, {"type": "Feature", "properties": {"name": "Public Alley 404", "number": 404, "alley_type": "public", "osm_id": 8650735}, "geometry": {"type": "LineString", "coordinates": [[-71.0840697, 42.3427314], [-71.083067, 42.3435758], [-71.0829472, 42.3436767], [-71.0826105, 42.3439602], [-71.0825569, 42.3440054]]}}, {"type": "Feature", "properties": {"name": "Public Alley 705", "number": 705, "alley_type": "public", "osm_id": 8650749}, "geometry": {"type": "LineString", "coordinates": [[-71.0672918, 42.3440947], [-71.0673628, 42.3441378], [-71.0698868, 42.3450169], [-71.0700212, 42.3450614]]}}, {"type": "Feature", "properties": {"name": "Public Alley 441", "number": 441, "alley_type": "public", "osm_id": 8650752}, "geometry": {"type": "LineString", "coordinates": [[-71.0797096, 42.3499331], [-71.0797875, 42.3499081], [-71.08191, 42.3493292], [-71.0819912, 42.3493092]]}}, {"type": "Feature", "properties": {"name": "Public Alley 706", "number": 706, "alley_type": "public", "osm_id": 8650767}, "geometry": {"type": "LineString", "coordinates": [[-71.0766451, 42.3387925], [-71.0780672, 42.3399855]]}}, {"type": "Feature", "properties": {"name": "Public Alley 427", "number": 427, "alley_type": "public", "osm_id": 8650838}, "geometry": {"type": "LineString", "coordinates": [[-71.0829678, 42.3512799], [-71.0830489, 42.351256], [-71.0848311, 42.3507801], [-71.0849174, 42.3507575]]}}, {"type": "Feature", "properties": {"name": "Public Alley 443", "number": 443, "alley_type": "public", "osm_id": 8650857}, "geometry": {"type": "LineString", "coordinates": [[-71.0839519, 42.3487806], [-71.0840324, 42.3487581], [-71.0853768, 42.3483981], [-71.0854216, 42.348385], [-71.0854617, 42.3483732]]}}, {"type": "Feature", "properties": {"name": "Public Alley 809", "number": 809, "alley_type": "public", "osm_id": 8650934}, "geometry": {"type": "LineString", "coordinates": [[-71.0876341, 42.3422295], [-71.0875798, 42.3422753], [-71.08729, 42.3425197], [-71.0870533, 42.3427174], [-71.0870164, 42.3427483]]}}, {"type": "Feature", "properties": {"name": "Private Alley 459", "number": 459, "alley_type": "private", "osm_id": 8651030}, "geometry": {"type": "LineString", "coordinates": [[-71.0817822, 42.3430109], [-71.0821779, 42.3432682]]}}, {"type": "Feature", "properties": {"name": "Public Alley 402", "number": 402, "alley_type": "public", "osm_id": 8651330}, "geometry": {"type": "LineString", "coordinates": [[-71.0812804, 42.3450568], [-71.0812268, 42.3451036], [-71.0805985, 42.3456274], [-71.0800075, 42.3461175], [-71.0799651, 42.3461564]]}}, {"type": "Feature", "properties": {"name": "Public Alley 810", "number": 810, "alley_type": "public", "osm_id": 8651455}, "geometry": {"type": "LineString", "coordinates": [[-71.08972, 42.3428957], [-71.08729, 42.3425197]]}}, {"type": "Feature", "properties": {"name": "Public Alley 422", "number": 422, "alley_type": "public", "osm_id": 8651653}, "geometry": {"type": "LineString", "coordinates": [[-71.0718839, 42.3542796], [-71.0719931, 42.3542444], [-71.073701, 42.3537844], [-71.0741401, 42.3536662], [-71.0742245, 42.3536434]]}}, {"type": "Feature", "properties": {"name": "Public Alley 804", "number": 804, "alley_type": "public", "osm_id": 8651685}, "geometry": {"type": "LineString", "coordinates": [[-71.079692, 42.33768], [-71.0797354, 42.3376531], [-71.0799429, 42.3375243], [-71.0800261, 42.3375176], [-71.0800998, 42.3375372], [-71.080691, 42.337967], [-71.0807202, 42.3380173], [-71.080715, 42.338075], [-71.0804594, 42.3382472], [-71.080405, 42.338284]]}}, {"type": "Feature", "properties": {"name": "Private Alley 527", "number": 527, "alley_type": "private", "osm_id": 8651756}, "geometry": {"type": "LineString", "coordinates": [[-71.0777293, 42.3430234], [-71.0776726, 42.3429462], [-71.0776061, 42.3428806], [-71.077381, 42.34266], [-71.07713, 42.342386], [-71.0766103, 42.3418521], [-71.0765487, 42.3417905]]}}, {"type": "Feature", "properties": {"name": "Public Alley 714", "number": 714, "alley_type": "public", "osm_id": 8651894}, "geometry": {"type": "LineString", "coordinates": [[-71.0761861, 42.3363863], [-71.0759155, 42.3365655], [-71.075877, 42.336591]]}}, {"type": "Feature", "properties": {"name": "Public Alley 403", "number": 403, "alley_type": "public", "osm_id": 8651922}, "geometry": {"type": "LineString", "coordinates": [[-71.0825569, 42.3440054], [-71.082504, 42.3440498], [-71.0813379, 42.3450088], [-71.0812804, 42.3450568]]}}, {"type": "Feature", "properties": {"name": "Public Alley 101", "number": 101, "alley_type": "public", "osm_id": 8652096}, "geometry": {"type": "LineString", "coordinates": [[-71.0536162, 42.361397], [-71.0535708, 42.3614461], [-71.0535468, 42.3614728], [-71.0529313, 42.3621577], [-71.0528923, 42.3622011]]}}, {"type": "Feature", "properties": {"name": "Public Alley 716", "number": 716, "alley_type": "public", "osm_id": 8652228}, "geometry": {"type": "LineString", "coordinates": [[-71.0747771, 42.3352438], [-71.074839, 42.3352946], [-71.0761861, 42.3363863]]}}, {"type": "Feature", "properties": {"name": "Public Alley 904", "number": 904, "alley_type": "public", "osm_id": 8652235}, "geometry": {"type": "LineString", "coordinates": [[-71.087682, 42.3453302], [-71.0876142, 42.3453493], [-71.0874929, 42.3453805], [-71.0874395, 42.3453992], [-71.0874181, 42.3454191], [-71.0874126, 42.3454355], [-71.0874149, 42.3454541], [-71.087911, 42.3464542], [-71.0879304, 42.3464971]]}}, {"type": "Feature", "properties": {"name": "Public Alley 436", "number": 436, "alley_type": "public", "osm_id": 8652246}, "geometry": {"type": "LineString", "coordinates": [[-71.0736349, 42.3524382], [-71.0737283, 42.3524141], [-71.0757073, 42.3518877], [-71.0757905, 42.3518656]]}}, {"type": "Feature", "properties": {"name": "Public Alley 430", "number": 430, "alley_type": "public", "osm_id": 8652405}, "geometry": {"type": "LineString", "coordinates": [[-71.0858482, 42.349146], [-71.0859269, 42.3491249], [-71.0862512, 42.3490363], [-71.088199, 42.3485079], [-71.0883158, 42.3484763]]}}, {"type": "Feature", "properties": {"name": "Public Alley 303", "number": 303, "alley_type": "public", "osm_id": 8652508}, "geometry": {"type": "LineString", "coordinates": [[-71.067349, 42.3586257], [-71.0670977, 42.3586521], [-71.0670897, 42.3588305], [-71.0670899, 42.3588509]]}}, {"type": "Feature", "properties": {"name": "Private Alley 906", "number": 906, "alley_type": "private", "osm_id": 25591373}, "geometry": {"type": "LineString", "coordinates": [[-71.0953472, 42.3433056], [-71.0953759, 42.3433626], [-71.0955585, 42.3437251], [-71.0957297, 42.3440925], [-71.0957535, 42.3441436]]}}, {"type": "Feature", "properties": {"name": "Public Alley 402", "number": 402, "alley_type": "public", "osm_id": 66942121}, "geometry": {"type": "LineString", "coordinates": [[-71.0799651, 42.3461564], [-71.0799193, 42.3462003], [-71.0794131, 42.346591], [-71.0793964, 42.3466016], [-71.0793766, 42.3466086], [-71.079353, 42.3466128], [-71.0793295, 42.3466117], [-71.0793113, 42.3466093], [-71.0792901, 42.3466024], [-71.0790439, 42.346441], [-71.0789901, 42.3464058]]}}, {"type": "Feature", "properties": {"name": "Public Alley 801", "number": 801, "alley_type": "public", "osm_id": 87905232}, "geometry": {"type": "LineString", "coordinates": [[-71.0869985, 42.3418074], [-71.086953, 42.3418456], [-71.0860862, 42.3425738], [-71.0859508, 42.3426876], [-71.0862127, 42.3428669], [-71.0862646, 42.3429024]]}}, {"type": "Feature", "properties": {"name": "Private Alley 234", "number": 234, "alley_type": "private", "osm_id": 88161832}, "geometry": {"type": "LineString", "coordinates": [[-71.0891662, 42.3407798], [-71.0890977, 42.3408063], [-71.0882758, 42.3411341], [-71.0877288, 42.3413724], [-71.0873217, 42.3415771], [-71.0870483, 42.3417719], [-71.0869985, 42.3418074]]}}, {"type": "Feature", "properties": {"name": "Public Alley 823", "number": 823, "alley_type": "public", "osm_id": 89531583}, "geometry": {"type": "LineString", "coordinates": [[-71.0845844, 42.3407359], [-71.0838256, 42.3413484], [-71.0837332, 42.341423], [-71.0843718, 42.3418626], [-71.0844384, 42.3419034]]}}, {"type": "Feature", "properties": {"name": "Private Alley 939", "number": 939, "alley_type": "private", "osm_id": 93458628}, "geometry": {"type": "LineString", "coordinates": [[-71.0962802, 42.3480383], [-71.096282, 42.3480857], [-71.0962888, 42.3482865]]}}, {"type": "Feature", "properties": {"name": "Public Alley 905", "number": 905, "alley_type": "public", "osm_id": 117737178}, "geometry": {"type": "LineString", "coordinates": [[-71.0896915, 42.349901], [-71.0896646, 42.3498467], [-71.0895788, 42.3496639], [-71.0894978, 42.3496523], [-71.0893894, 42.3496458], [-71.0893114, 42.3496409], [-71.0892642, 42.3496419], [-71.0891808, 42.3496559], [-71.089055, 42.3496887], [-71.0889227, 42.3497231]]}}, {"type": "Feature", "properties": {"name": "Private Alley 931", "number": 931, "alley_type": "private", "osm_id": 327687576}, "geometry": {"type": "LineString", "coordinates": [[-71.1012532, 42.3426581], [-71.1012751, 42.3426982], [-71.101285, 42.3427135], [-71.1013019, 42.3427397], [-71.1013342, 42.3427788], [-71.1015676, 42.3430294], [-71.1018342, 42.3433284], [-71.1018692, 42.343373], [-71.1019198, 42.3434624]]}}, {"type": "Feature", "properties": {"name": "Public Alley 909", "number": 909, "alley_type": "public", "osm_id": 536658241}, "geometry": {"type": "LineString", "coordinates": [[-71.0879304, 42.3464971], [-71.087949, 42.3465384], [-71.0880714, 42.3467732]]}}, {"type": "Feature", "properties": {"name": "Private Alley 937", "number": 937, "alley_type": "private", "osm_id": 618227766}, "geometry": {"type": "LineString", "coordinates": [[-71.0976075, 42.3441137], [-71.0975324, 42.3441345], [-71.0967532, 42.3443542], [-71.0966583, 42.3443294], [-71.0962997, 42.3444161], [-71.0955138, 42.344641], [-71.0954809, 42.3446843], [-71.0954619, 42.3447522], [-71.0954835, 42.3448111], [-71.0955039, 42.3448517], [-71.0956003, 42.3450399], [-71.0956094, 42.3450599], [-71.0956594, 42.3451529]]}}, {"type": "Feature", "properties": {"name": "Public Alley 2001", "number": 2001, "alley_type": "public", "osm_id": 788019873}, "geometry": {"type": "LineString", "coordinates": [[-71.0361915, 42.3654445], [-71.0361511, 42.3654942], [-71.0360489, 42.3656057], [-71.0359855, 42.3656717], [-71.0357641, 42.365947], [-71.0356633, 42.3660775], [-71.0356322, 42.3661204]]}}, {"type": "Feature", "properties": {"name": "Public Alley 545", "number": 545, "alley_type": "public", "osm_id": 791613105}, "geometry": {"type": "LineString", "coordinates": [[-71.0765016, 42.3453191], [-71.0762061, 42.345557], [-71.0761589, 42.3455951]]}}, {"type": "Feature", "properties": {"name": "Public Alley 545", "number": 545, "alley_type": "public", "osm_id": 791613106}, "geometry": {"type": "LineString", "coordinates": [[-71.0768339, 42.3450489], [-71.0767861, 42.345088], [-71.0765016, 42.3453191]]}}, {"type": "Feature", "properties": {"name": "Public Alley 440", "number": 440, "alley_type": "public", "osm_id": 800859878}, "geometry": {"type": "LineString", "coordinates": [[-71.0797096, 42.3499331], [-71.0796253, 42.3499606], [-71.0790929, 42.3501005]]}}, {"type": "Feature", "properties": {"name": "Public Alley 434", "number": 434, "alley_type": "public", "osm_id": 801277008}, "geometry": {"type": "LineString", "coordinates": [[-71.0779301, 42.3512833], [-71.0780694, 42.3512459], [-71.0800022, 42.3507238], [-71.0800853, 42.3507042]]}}, {"type": "Feature", "properties": {"name": "Public Alley 435", "number": 435, "alley_type": "public", "osm_id": 801277011}, "geometry": {"type": "LineString", "coordinates": [[-71.0757905, 42.3518656], [-71.0758789, 42.3518418], [-71.0778213, 42.3513139], [-71.0778857, 42.3512959], [-71.0779301, 42.3512833]]}}, {"type": "Feature", "properties": {"name": "Public Alley 440", "number": 440, "alley_type": "public", "osm_id": 810890942}, "geometry": {"type": "LineString", "coordinates": [[-71.0790929, 42.3501005], [-71.0776697, 42.3504745]]}}, {"type": "Feature", "properties": {"name": "Private Alley 938", "number": 938, "alley_type": "private", "osm_id": 813683167}, "geometry": {"type": "LineString", "coordinates": [[-71.0955613, 42.3456709], [-71.0954415, 42.345705], [-71.0950573, 42.3458076], [-71.0939545, 42.3468403], [-71.0937384, 42.3470399], [-71.093572, 42.3471956], [-71.0935207, 42.3472436], [-71.0935121, 42.3474503], [-71.0935091, 42.3475219]]}}, {"type": "Feature", "properties": {"name": "Private Alley 939", "number": 939, "alley_type": "private", "osm_id": 822618777}, "geometry": {"type": "LineString", "coordinates": [[-71.0968469, 42.3480397], [-71.0968475, 42.3480842], [-71.0968499, 42.3482423], [-71.0967841, 42.3482758], [-71.0962888, 42.3482865], [-71.0955511, 42.3483022]]}}, {"type": "Feature", "properties": {"name": "Public Alley 437", "number": 437, "alley_type": "public", "osm_id": 822903046}, "geometry": {"type": "LineString", "coordinates": [[-71.0714776, 42.3530267], [-71.0718943, 42.3529131]]}}, {"type": "Feature", "properties": {"name": "Public Alley 437", "number": 437, "alley_type": "public", "osm_id": 822903047}, "geometry": {"type": "LineString", "coordinates": [[-71.0718943, 42.3529131], [-71.07355, 42.3524733], [-71.0736349, 42.3524382]]}}, {"type": "Feature", "properties": {"name": "Public Alley 444", "number": 444, "alley_type": "public", "osm_id": 825086749}, "geometry": {"type": "LineString", "coordinates": [[-71.086604, 42.348019], [-71.0861454, 42.3481428]]}}, {"type": "Feature", "properties": {"name": "Public Alley 444", "number": 444, "alley_type": "public", "osm_id": 825086750}, "geometry": {"type": "LineString", "coordinates": [[-71.0861454, 42.3481428], [-71.0860964, 42.3482073], [-71.0855447, 42.3483508], [-71.0854617, 42.3483732]]}}, {"type": "Feature", "properties": {"name": "Private Alley 939", "number": 939, "alley_type": "private", "osm_id": 825276171}, "geometry": {"type": "LineString", "coordinates": [[-71.0955511, 42.3483022], [-71.0954547, 42.3483042]]}}, {"type": "Feature", "properties": {"name": "Private Alley 939", "number": 939, "alley_type": "private", "osm_id": 825276183}, "geometry": {"type": "LineString", "coordinates": [[-71.0954547, 42.3483042], [-71.0950193, 42.3483136], [-71.0949635, 42.3483147]]}}, {"type": "Feature", "properties": {"name": "Private Alley 934", "number": 934, "alley_type": "private", "osm_id": 825505807}, "geometry": {"type": "LineString", "coordinates": [[-71.0989599, 42.3427972], [-71.0986841, 42.3428748], [-71.0986477, 42.3428846], [-71.0978418, 42.343103], [-71.0972705, 42.3432577], [-71.0971917, 42.343279]]}}, {"type": "Feature", "properties": {"name": "Private Alley 929", "number": 929, "alley_type": "private", "osm_id": 825505808}, "geometry": {"type": "LineString", "coordinates": [[-71.098325, 42.3417819], [-71.0984357, 42.3420195], [-71.0986001, 42.3423722], [-71.0986232, 42.3424217]]}}, {"type": "Feature", "properties": {"name": "Private Alley 546", "number": 546, "alley_type": "private", "osm_id": 846012894}, "geometry": {"type": "LineString", "coordinates": [[-71.0775687, 42.3461022], [-71.0775433, 42.3460688], [-71.0775316, 42.3460527], [-71.0775115, 42.3460229], [-71.0774898, 42.3459955], [-71.0765016, 42.3453191]]}}, {"type": "Feature", "properties": {"name": "Public Alley 909", "number": 909, "alley_type": "public", "osm_id": 858314155}, "geometry": {"type": "LineString", "coordinates": [[-71.0880714, 42.3467732], [-71.0880426, 42.3467873], [-71.087688, 42.3468859], [-71.0875603, 42.3469234]]}}, {"type": "Feature", "properties": {"name": "Private Alley 7216", "number": 7216, "alley_type": "private", "osm_id": 896591333}, "geometry": {"type": "LineString", "coordinates": [[-71.0745221, 42.3375429], [-71.0745641, 42.3375144], [-71.0747881, 42.337371], [-71.0744888, 42.3371069], [-71.074139, 42.3368167], [-71.0739722, 42.3366927], [-71.0736486, 42.3364089], [-71.0735485, 42.3363286], [-71.0734821, 42.3362753]]}}, {"type": "Feature", "properties": {"name": "Private Alley 458", "number": 458, "alley_type": "private", "osm_id": 1024894148}, "geometry": {"type": "LineString", "coordinates": [[-71.0825001, 42.3430129], [-71.0824485, 42.343051], [-71.0821779, 42.3432682]]}}, {"type": "Feature", "properties": {"name": "Private Alley 458", "number": 458, "alley_type": "private", "osm_id": 1024894149}, "geometry": {"type": "LineString", "coordinates": [[-71.0821779, 42.3432682], [-71.0819, 42.3434978], [-71.0818518, 42.343538]]}}, {"type": "Feature", "properties": {"name": "Private Alley 448", "number": 448, "alley_type": "private", "osm_id": 1024894150}, "geometry": {"type": "LineString", "coordinates": [[-71.0827899, 42.3427769], [-71.0825638, 42.342962], [-71.0825001, 42.3430129]]}}, {"type": "Feature", "properties": {"name": "Private Alley 448", "number": 448, "alley_type": "private", "osm_id": 1024894151}, "geometry": {"type": "LineString", "coordinates": [[-71.0827899, 42.3427769], [-71.0830959, 42.3425317], [-71.0831609, 42.3424796]]}}, {"type": "Feature", "properties": {"name": "Public Alley 717", "number": 717, "alley_type": "public", "osm_id": 1081165191}, "geometry": {"type": "LineString", "coordinates": [[-71.0634832, 42.3432655], [-71.0635133, 42.3432039], [-71.0636297, 42.3429658], [-71.0636593, 42.3428889], [-71.0635958, 42.3428645], [-71.0628087, 42.3426546], [-71.0627298, 42.3426567]]}}, {"type": "Feature", "properties": {"name": "Private Alley 455", "number": 455, "alley_type": "private", "osm_id": 1184370925}, "geometry": {"type": "LineString", "coordinates": [[-71.0812657, 42.3440968], [-71.0812151, 42.3441391], [-71.080946, 42.3443645]]}}, {"type": "Feature", "properties": {"name": "Private Alley 934", "number": 934, "alley_type": "private", "osm_id": 1279199672}, "geometry": {"type": "LineString", "coordinates": [[-71.0993798, 42.3426863], [-71.0993027, 42.3427067], [-71.0991877, 42.3427371]]}}, {"type": "Feature", "properties": {"name": "Private Alley 934", "number": 934, "alley_type": "private", "osm_id": 1279199673}, "geometry": {"type": "LineString", "coordinates": [[-71.0991877, 42.3427371], [-71.0989599, 42.3427972]]}}, {"type": "Feature", "properties": {"name": "Public Alley 303", "number": 303, "alley_type": "public", "osm_id": 1303174799}, "geometry": {"type": "LineString", "coordinates": [[-71.0670977, 42.3586521], [-71.0668533, 42.3586573]]}}]}